{"features":[{"geometry":{"coordinates":[[[93.128544,-35.548625],[93.272772,-35.43876],[93.358698,-35.373297],[93.414995,-35.330195],[93.714258,-35.098205],[93.792022,-35.037087],[93.768633,-35.014406],[93.953805,-34.862696],[94.022941,-34.807365],[94.132301,-34.719287],[94.367609,-34.527446],[94.510164,-34.409655],[94.706908,-34.245106],[95.031201,-33.968761],[95.040064,-33.961118],[95.045224,-33.956666],[95.369913,-33.673131],[95.560304,-33.503726],[95.693777,-33.383548],[95.930902,-33.167109],[96.012463,-33.091781],[96.056593,-33.050831],[96.327287,-32.796683],[96.535164,-32.597978],[96.636483,-32.499992],[96.829949,-32.310786],[96.940998,-32.200913],[96.996985,-32.145164],[97.241504,-31.898844],[97.269368,-31.86902],[97.12116,-31.749625],[97.236101,-31.624792],[97.329972,-31.527801],[97.522131,-31.327012],[97.621002,-31.222508],[97.667559,-31.173014],[97.908185,-30.914261],[98.08469,-30.721256],[98.190315,-30.604431],[98.421538,-30.345153],[98.467783,-30.292704],[98.488171,-30.269517],[98.7418,-29.97777],[98.878626,-29.817797],[99.011001,-29.661262],[99.256629,-29.366095],[99.275474,-29.343193],[99.321008,-29.287699],[99.536539,-29.022037],[99.622717,-28.914409],[99.793259,-28.698998],[99.977384,-28.462738],[100.045452,-28.374404],[100.220455,-28.144789],[100.293583,-28.047751],[100.321089,-28.011083],[100.538226,-27.718328],[100.654261,-27.559441],[100.77852,-27.387359],[100.9773,-27.107812],[101.014535,-27.054854],[101.119668,-26.904289],[101.221369,-26.757812],[101.45169,-26.418526],[101.858155,-25.801558],[101.96789,-25.630055],[102.152189,-25.338595],[102.290393,-25.115744],[101.534976,-24.731568],[101.155987,-25.332457],[100.807417,-25.86207],[100.563336,-26.222215],[100.436037,-26.407862],[100.392129,-26.471056],[100.264034,-26.653881],[100.158236,-26.803184],[100.120766,-26.855697],[99.920737,-27.132889],[99.795702,-27.303516],[99.678946,-27.461056],[99.460472,-27.751318],[99.432797,-27.787672],[99.359222,-27.883881],[99.183156,-28.111527],[99.114676,-28.199101],[98.929444,-28.433321],[98.757886,-28.646864],[98.671198,-28.753556],[98.4544,-29.016899],[98.4086,-29.071906],[98.389645,-29.094607],[98.142593,-29.387178],[98.009458,-29.542329],[97.871853,-29.700882],[97.616791,-29.990027],[97.596289,-30.013006],[97.549785,-30.064985],[97.317279,-30.321932],[97.211072,-30.437701],[97.033603,-30.628956],[96.791677,-30.885349],[96.744871,-30.934391],[96.645472,-31.037935],[96.462354,-31.222534],[96.383892,-31.159192],[96.344799,-31.200705],[96.250377,-31.296688],[96.047509,-31.500551],[95.801274,-31.743757],[95.744898,-31.798798],[95.633081,-31.907272],[95.438288,-32.09406],[95.33628,-32.190788],[95.127004,-32.38693],[94.854515,-32.637778],[94.810095,-32.678194],[94.728001,-32.752537],[94.489342,-32.966134],[94.355015,-33.084725],[94.163419,-33.251882],[93.836711,-33.531625],[93.83152,-33.536017],[93.822603,-33.543557],[93.49634,-33.816168],[93.298423,-33.978475],[93.155029,-34.094653],[92.941528,-34.262864],[92.878603,-34.269311],[92.768597,-34.356127],[92.699055,-34.410664],[92.417616,-34.628686],[92.116599,-34.85719],[92.059976,-34.899641],[91.973557,-34.964112],[91.698295,-35.166915],[91.509718,-35.303647],[91.330531,-35.431941],[91.068767,-35.61655],[91.025341,-35.646487],[93.128544,-35.548625]]],"type":"Polygon"},"properties":{"geometry_quality":"C: reconstructed outline, checked against official weekly maps and totals","id":"oi2018_total_outline_approx","model_role":"uncertain-coverage seabed non-detection likelihood","name":"Ocean Infinity 2018 total-search outline (approximate)","nominal_uniform_coverage_fraction":0.8054,"outline_area_km2":148993.3,"published_mapped_area_km2":120000,"source_grade":"C","status":"searched, including post-contract extension","warning":"Do not treat the outline as a fully covered binary polygon; exact AUV swaths are not public."},"type":"Feature"},{"geometry":{"coordinates":[[[94.881353,-34.097201],[95.153931,-34.333791],[95.098067,-34.380239],[94.901732,-34.545496],[94.759469,-34.663798],[94.524638,-34.856475],[94.415498,-34.944938],[94.346499,-35.000513],[94.067231,-35.222706],[93.768487,-35.455623],[93.712285,-35.498899],[93.626506,-35.564626],[93.353253,-35.771403],[93.166027,-35.910837],[92.988105,-36.04168],[92.935328,-36.08215],[92.714485,-35.884993],[94.881353,-34.097201]]],"type":"Polygon"},"properties":{"approx_outline_area_km2":9767.8,"geometry_quality":"C: traced from Ocean Infinity's March 2024 presentation by community analysts","id":"oi2024_proposed_outboard_southeast","inference":"Community vessel tracking indicates the outboard band was traversed; exact AUV coverage remains unpublished.","model_role":"uncertain current-search status; marginalize footprint","name":"Renewed-search proposed outboard/southeast band","remaining_likelihood":"low-to-moderate","source_grade":"C","status":"likely substantially searched by Jan 2026, including pre-contract work","warning":"Not an official contract polygon and not an AUV swath polygon."},"type":"Feature"},{"geometry":{"coordinates":[[[94.041194,-33.356157],[93.847851,-33.182935],[93.559898,-33.432002],[93.554699,-33.43638],[93.545771,-33.443897],[93.21909,-33.715635],[93.020924,-33.877418],[92.877351,-33.993219],[92.640387,-34.1818],[92.530267,-34.268372],[92.460654,-34.322755],[92.17893,-34.540158],[91.877617,-34.768007],[91.820939,-34.810336],[91.734436,-34.874621],[91.70178,-34.901596],[91.861887,-35.046773],[94.041194,-33.356157]]],"type":"Polygon"},"properties":{"approx_outline_area_km2":6072.0,"geometry_quality":"C: traced from Ocean Infinity's March 2024 presentation by community analysts","id":"oi2024_proposed_inboard_northwest","inference":"The official residual is 7,428.54 km\u00b2; this uncompleted-looking band is about 6,100 km\u00b2 in the approximate reconstruction, with the balance plausibly in infill/gaps or boundary differences.","model_role":"uncertain current-search status; marginalize footprint","name":"Renewed-search proposed inboard/northwest band","remaining_likelihood":"high","source_grade":"C","status":"most likely concentration of the official remaining area","warning":"Not an official contract polygon and not an AUV swath polygon."},"type":"Feature"}],"metadata":{"negative_search_eligible":false,"source_class":"preserved_legacy_reconstruction","source_grade":"C","warning":"Approximate outlines only; not official AUV swaths, valid-data masks, or binary negative-search evidence."},"type":"FeatureCollection"}
