{"type":"FeatureCollection","crs":{"type":"name","properties":{"name":"EPSG:4326"}},"features":[{"type":"Feature","id":1,"geometry":{"type":"Polygon","coordinates":[[[103.863564617713,-21.0101333964391],[103.915198921393,-21.0313105987051],[103.953746189935,-20.9545253924329],[103.9661193873,-20.9597602066681],[103.963739925957,-20.9666606435738],[103.986820698017,-20.9764164333716],[103.997290326487,-20.9545253924329],[104.027652249052,-20.9668985897981],[104.041215176639,-20.9407245186216],[104.096656618109,-20.9633293982331],[104.10165348612,-20.9507182546437],[104.16375741827,-20.9766543795959],[104.146387352894,-21.0132980792429],[104.176892042834,-21.0261471690566],[104.11026713512,-21.164465237081],[104.186885778856,-21.1968259064903],[104.155238948119,-21.2635935824778],[104.073861381697,-21.227187829055],[104.075051111919,-21.2250463139362],[104.035076166932,-21.2083900872327],[104.032934651813,-21.2131490090195],[103.988426215398,-21.1936617174143],[103.9874744314,-21.196326713507],[103.852751728809,-21.138448704644],[103.865600817724,-21.1132264174652],[103.864768006838,-21.1126196547732],[103.886599561221,-21.0672195387507],[103.844832644211,-21.0495056418718],[103.84461119605,-21.0496718473778],[103.863564617713,-21.0101333964391]]]},"properties":{"FID":1,"Id":0}},{"type":"Feature","id":2,"geometry":{"type":"Polygon","coordinates":[[[103.821667849392,-20.9195095286418],[103.835236488573,-20.9128759718486],[103.87277638782,-20.9795130626777],[103.859207749538,-20.985995857123],[103.821667849392,-20.9195095286418]]]},"properties":{"FID":2,"Id":0}}]}