{
 "type": "FeatureCollection",
 "features": [
  {
   "type": "Feature",
   "properties": {
    "name": "Ocean Infinity 2018 search, traced outline",
    "source": "MH370-CAPTION 'Search areas' Google Earth KML (www.mh370-caption.net), placemark 'Ocean Infinity 2018 search'; LineString closed into a ring, rounded to 1e-6 deg",
    "source_kml_sha256": "dafa767f03419ccf482c2d338702c9f8c9e05ac0e950fdb53f416fe0c39018ab",
    "grade": "C: community tracing, not official geometry; exact AUV swaths are not public",
    "reported_area_km2": "more than 112,000 (Ocean Infinity, 29 May 2018); 120,000 (Ocean Infinity data donation)"
   },
   "geometry": {
    "type": "Polygon",
    "coordinates": [
     [
      [
       93.128544,
       -35.548625
      ],
      [
       93.272772,
       -35.43876
      ],
      [
       93.358698,
       -35.373297
      ],
      [
       93.414995,
       -35.330195
      ],
      [
       93.714258,
       -35.098205
      ],
      [
       93.792022,
       -35.037087
      ],
      [
       93.768633,
       -35.014406
      ],
      [
       93.953805,
       -34.862696
      ],
      [
       94.022941,
       -34.807365
      ],
      [
       94.132301,
       -34.719287
      ],
      [
       94.367609,
       -34.527446
      ],
      [
       94.510164,
       -34.409655
      ],
      [
       94.706908,
       -34.245106
      ],
      [
       95.031201,
       -33.968761
      ],
      [
       95.040064,
       -33.961118
      ],
      [
       95.045224,
       -33.956666
      ],
      [
       95.369913,
       -33.673131
      ],
      [
       95.560304,
       -33.503726
      ],
      [
       95.693777,
       -33.383548
      ],
      [
       95.930902,
       -33.167109
      ],
      [
       96.012463,
       -33.091781
      ],
      [
       96.056593,
       -33.050831
      ],
      [
       96.327287,
       -32.796683
      ],
      [
       96.535164,
       -32.597978
      ],
      [
       96.636483,
       -32.499992
      ],
      [
       96.829949,
       -32.310786
      ],
      [
       96.940998,
       -32.200913
      ],
      [
       96.996985,
       -32.145164
      ],
      [
       97.241504,
       -31.898844
      ],
      [
       97.269368,
       -31.86902
      ],
      [
       97.12116,
       -31.749625
      ],
      [
       97.236101,
       -31.624792
      ],
      [
       97.329972,
       -31.527801
      ],
      [
       97.522131,
       -31.327012
      ],
      [
       97.621002,
       -31.222508
      ],
      [
       97.667559,
       -31.173014
      ],
      [
       97.908185,
       -30.914261
      ],
      [
       98.08469,
       -30.721256
      ],
      [
       98.190315,
       -30.604431
      ],
      [
       98.421538,
       -30.345153
      ],
      [
       98.467783,
       -30.292704
      ],
      [
       98.488171,
       -30.269517
      ],
      [
       98.7418,
       -29.97777
      ],
      [
       98.878626,
       -29.817797
      ],
      [
       99.011001,
       -29.661262
      ],
      [
       99.256629,
       -29.366095
      ],
      [
       99.275474,
       -29.343193
      ],
      [
       99.321008,
       -29.287699
      ],
      [
       99.536539,
       -29.022037
      ],
      [
       99.622717,
       -28.914409
      ],
      [
       99.793259,
       -28.698998
      ],
      [
       99.977384,
       -28.462738
      ],
      [
       100.045452,
       -28.374404
      ],
      [
       100.220455,
       -28.144789
      ],
      [
       100.293583,
       -28.047751
      ],
      [
       100.321089,
       -28.011083
      ],
      [
       100.538226,
       -27.718328
      ],
      [
       100.654261,
       -27.559441
      ],
      [
       100.77852,
       -27.387359
      ],
      [
       100.9773,
       -27.107812
      ],
      [
       101.014535,
       -27.054854
      ],
      [
       101.119668,
       -26.904289
      ],
      [
       101.221369,
       -26.757812
      ],
      [
       101.45169,
       -26.418526
      ],
      [
       101.858155,
       -25.801558
      ],
      [
       101.96789,
       -25.630055
      ],
      [
       102.152189,
       -25.338595
      ],
      [
       102.290393,
       -25.115744
      ],
      [
       101.534976,
       -24.731568
      ],
      [
       101.155987,
       -25.332457
      ],
      [
       100.807417,
       -25.86207
      ],
      [
       100.563336,
       -26.222215
      ],
      [
       100.436037,
       -26.407862
      ],
      [
       100.392129,
       -26.471056
      ],
      [
       100.264034,
       -26.653881
      ],
      [
       100.158236,
       -26.803184
      ],
      [
       100.120766,
       -26.855697
      ],
      [
       99.920737,
       -27.132889
      ],
      [
       99.795702,
       -27.303516
      ],
      [
       99.678946,
       -27.461056
      ],
      [
       99.460472,
       -27.751318
      ],
      [
       99.432797,
       -27.787672
      ],
      [
       99.359222,
       -27.883881
      ],
      [
       99.183156,
       -28.111527
      ],
      [
       99.114676,
       -28.199101
      ],
      [
       98.929444,
       -28.433321
      ],
      [
       98.757886,
       -28.646864
      ],
      [
       98.671198,
       -28.753556
      ],
      [
       98.4544,
       -29.016899
      ],
      [
       98.4086,
       -29.071906
      ],
      [
       98.389645,
       -29.094607
      ],
      [
       98.142593,
       -29.387178
      ],
      [
       98.009458,
       -29.542329
      ],
      [
       97.871853,
       -29.700882
      ],
      [
       97.616791,
       -29.990027
      ],
      [
       97.596289,
       -30.013006
      ],
      [
       97.549785,
       -30.064985
      ],
      [
       97.317279,
       -30.321932
      ],
      [
       97.211072,
       -30.437701
      ],
      [
       97.033603,
       -30.628956
      ],
      [
       96.791677,
       -30.885349
      ],
      [
       96.744871,
       -30.934391
      ],
      [
       96.645472,
       -31.037935
      ],
      [
       96.462354,
       -31.222534
      ],
      [
       96.383892,
       -31.159192
      ],
      [
       96.344799,
       -31.200705
      ],
      [
       96.250377,
       -31.296688
      ],
      [
       96.047509,
       -31.500551
      ],
      [
       95.801274,
       -31.743757
      ],
      [
       95.744898,
       -31.798798
      ],
      [
       95.633081,
       -31.907272
      ],
      [
       95.438288,
       -32.09406
      ],
      [
       95.33628,
       -32.190788
      ],
      [
       95.127004,
       -32.38693
      ],
      [
       94.854515,
       -32.637778
      ],
      [
       94.810095,
       -32.678194
      ],
      [
       94.728001,
       -32.752537
      ],
      [
       94.489342,
       -32.966134
      ],
      [
       94.355015,
       -33.084725
      ],
      [
       94.163419,
       -33.251882
      ],
      [
       93.836711,
       -33.531625
      ],
      [
       93.83152,
       -33.536017
      ],
      [
       93.822603,
       -33.543557
      ],
      [
       93.49634,
       -33.816168
      ],
      [
       93.298423,
       -33.978475
      ],
      [
       93.155029,
       -34.094653
      ],
      [
       92.941528,
       -34.262864
      ],
      [
       92.878603,
       -34.269311
      ],
      [
       92.768597,
       -34.356127
      ],
      [
       92.699055,
       -34.410664
      ],
      [
       92.417616,
       -34.628686
      ],
      [
       92.116599,
       -34.85719
      ],
      [
       92.059976,
       -34.899641
      ],
      [
       91.973557,
       -34.964112
      ],
      [
       91.698295,
       -35.166915
      ],
      [
       91.509718,
       -35.303647
      ],
      [
       91.330531,
       -35.431941
      ],
      [
       91.068767,
       -35.61655
      ],
      [
       91.025341,
       -35.646487
      ],
      [
       93.128544,
       -35.548625
      ]
     ]
    ]
   }
  }
 ]
}
